{"type": "FeatureCollection", "features": [ {"type": "Feature", "properties": {"norad_id": 33980, "name": "COSMOS 2251 DEB", "group": "cosmos-2251-debris", "lat": -72.30508848305081, "lon": -18.247887417650464, "alt_km": 703.6568999069668, "timestamp": "2025-12-19T22:41:52.789135+00:00", "meta": {"OBJECT_NAME": "COSMOS 2251 DEB", "OBJECT_ID": "1993-036FP", "EPOCH": "2025-12-19T09:58:33.270240", "MEAN_MOTION": 14.58687423, "ECCENTRICITY": 0.0028296, "INCLINATION": 74.0212, "RA_OF_ASC_NODE": 46.6721, "ARG_OF_PERICENTER": 190.6792, "MEAN_ANOMALY": 184.203, "EPHEMERIS_TYPE": 0, "CLASSIFICATION_TYPE": "U", "NORAD_CAT_ID": 33980, "ELEMENT_SET_NO": 999, "REV_AT_EPOCH": 88892, "BSTAR": 0.000413, "MEAN_MOTION_DOT": 1.907e-05, "MEAN_MOTION_DDOT": 0}, "tle": {"line1": "1 33980U 93036FP  25353.41566285  .00001907  00000+0  41300-3 0  9996", "line2": "2 33980  74.0212  46.6721 0028296 190.6792 184.2030 14.58687423888929"}}, "geometry": {"type": "Point", "coordinates": [-18.247887417650464, -72.30508848305081]}}, {"type": "Feature", "properties": {"norad_id": 33982, "name": "COSMOS 2251 DEB", "group": "cosmos-2251-debris", "lat": 6.861594337064989, "lon": 164.23753814093814, "alt_km": 737.0956717029458, "timestamp": "2025-12-19T22:41:52.789146+00:00", "meta": {"OBJECT_NAME": "COSMOS 2251 DEB", "OBJECT_ID": "1993-036FR", "EPOCH": "2025-12-19T17:47:40.815168", "MEAN_MOTION": 14.60238514, "ECCENTRICITY": 0.0075297, "INCLINATION": 74.0698, "RA_OF_ASC_NODE": 346.5962, "ARG_OF_PERICENTER": 29.1003, "MEAN_ANOMALY": 149.5787, "EPHEMERIS_TYPE": 0, "CLASSIFICATION_TYPE": "U", "NORAD_CAT_ID": 33982, "ELEMENT_SET_NO": 999, "REV_AT_EPOCH": 89261, "BSTAR": 0.00033291, "MEAN_MOTION_DOT": 1.64e-05, "MEAN_MOTION_DDOT": 0}, "tle": {"line1": "1 33982U 93036FR  25353.74144462  .00001640  00000+0  33291-3 0  9997", "line2": "2 33982  74.0698 346.5962 0075297  29.1003 149.5787 14.60238514892612"}}, "geometry": {"type": "Point", "coordinates": [164.23753814093814, 6.861594337064989]}}, {"type": "Feature", "properties": {"norad_id": 33983, "name": "COSMOS 2251 DEB", "group": "cosmos-2251-debris", "lat": -35.29117184161723, "lon": -34.809403721956535, "alt_km": 715.0255198633349, "timestamp": "2025-12-19T22:41:52.789155+00:00", "meta": {"OBJECT_NAME": "COSMOS 2251 DEB", "OBJECT_ID": "1993-036FS", "EPOCH": "2025-12-19T18:42:47.255040", "MEAN_MOTION": 14.50697012, "ECCENTRICITY": 0.002121, "INCLINATION": 74.0493, "RA_OF_ASC_NODE": 133.823, "ARG_OF_PERICENTER": 235.9773, "MEAN_ANOMALY": 194.1642, "EPHEMERIS_TYPE": 0, "CLASSIFICATION_TYPE": "U", "NORAD_CAT_ID": 33983, "ELEMENT_SET_NO": 999, "REV_AT_EPOCH": 88731, "BSTAR": 0.00037621, "MEAN_MOTION_DOT": 1.455e-05, "MEAN_MOTION_DDOT": 0}, "tle": {"line1": "1 33983U 93036FS  25353.77971360  .00001455  00000+0  37621-3 0  9991", "line2": "2 33983  74.0493 133.8230 0021210 235.9773 194.1642 14.50697012887316"}}, "geometry": {"type": "Point", "coordinates": [-34.809403721956535, -35.29117184161723]}}, {"type": "Feature", "properties": {"norad_id": 33984, "name": "COSMOS 2251 DEB", "group": "cosmos-2251-debris", "lat": 9.351793616190623, "lon": -24.106311832150794, "alt_km": 688.8797667355248, "timestamp": "2025-12-19T22:41:52.789166+00:00", "meta": {"OBJECT_NAME": "COSMOS 2251 DEB", "OBJECT_ID": "1993-036FT", "EPOCH": "2025-12-18T23:59:04.772256", "MEAN_MOTION": 14.66414895, "ECCENTRICITY": 0.00227517, "INCLINATION": 74.0089, "RA_OF_ASC_NODE": 335.0135, "ARG_OF_PERICENTER": 171.3355, "MEAN_ANOMALY": 244.5762, "EPHEMERIS_TYPE": 0, "CLASSIFICATION_TYPE": "U", "NORAD_CAT_ID": 33984, "ELEMENT_SET_NO": 999, "REV_AT_EPOCH": 89158, "BSTAR": 0.00061279688, "MEAN_MOTION_DOT": 3.372e-05, "MEAN_MOTION_DDOT": 0}, "tle": {"line1": "1 33984U 93036FT  25352.99936079  .00003372  00000+0  61280-3 0  9991", "line2": "2 33984  74.0089 335.0135 0022751 171.3355 244.5762 14.66414895891588"}}, "geometry": {"type": "Point", "coordinates": [-24.106311832150794, 9.351793616190623]}}, {"type": "Feature", "properties": {"norad_id": 33986, "name": "COSMOS 2251 DEB", "group": "cosmos-2251-debris", "lat": 41.06311247672513, "lon": 94.84752585107246, "alt_km": 765.2019608865448, "timestamp": "2025-12-19T22:41:52.789176+00:00", "meta": {"OBJECT_NAME": "COSMOS 2251 DEB", "OBJECT_ID": "1993-036FV", "EPOCH": "2025-12-18T21:25:07.387968", "MEAN_MOTION": 14.43233693, "ECCENTRICITY": 0.00407833, "INCLINATION": 74.0369, "RA_OF_ASC_NODE": 291.2436, "ARG_OF_PERICENTER": 2.5986, "MEAN_ANOMALY": 63.5229, "EPHEMERIS_TYPE": 0, "CLASSIFICATION_TYPE": "U", "NORAD_CAT_ID": 33986, "ELEMENT_SET_NO": 999, "REV_AT_EPOCH": 88117, "BSTAR": 0.00054447356, "MEAN_MOTION_DOT": 1.824e-05, "MEAN_MOTION_DDOT": 0}, "tle": {"line1": "1 33986U 93036FV  25352.89244662  .00001824  00000+0  54447-3 0  9999", "line2": "2 33986  74.0369 291.2436 0040783   2.5986  63.5229 14.43233693881179"}}, "geometry": {"type": "Point", "coordinates": [94.84752585107246, 41.06311247672513]}}, {"type": "Feature", "properties": {"norad_id": 33990, "name": "COSMOS 2251 DEB", "group": "cosmos-2251-debris", "lat": -63.58869034454525, "lon": -121.0547693661137, "alt_km": 775.6770061562429, "timestamp": "2025-12-19T22:41:52.789186+00:00", "meta": {"OBJECT_NAME": "COSMOS 2251 DEB", "OBJECT_ID": "1993-036FZ", "EPOCH": "2025-12-19T06:01:39.087840", "MEAN_MOTION": 13.50004912, "ECCENTRICITY": 0.0407443, "INCLINATION": 73.9284, "RA_OF_ASC_NODE": 275.5406, "ARG_OF_PERICENTER": 294.6793, "MEAN_ANOMALY": 222.2317, "EPHEMERIS_TYPE": 0, "CLASSIFICATION_TYPE": "U", "NORAD_CAT_ID": 33990, "ELEMENT_SET_NO": 999, "REV_AT_EPOCH": 82817, "BSTAR": 0.00070112, "MEAN_MOTION_DOT": 7.23e-06, "MEAN_MOTION_DDOT": 0}, "tle": {"line1": "1 33990U 93036FZ  25353.25114685  .00000723  00000+0  70112-3 0  9990", "line2": "2 33990  73.9284 275.5406 0407443 294.6793 222.2317 13.50004912828170"}}, "geometry": {"type": "Point", "coordinates": [-121.0547693661137, -63.58869034454525]}}, {"type": "Feature", "properties": {"norad_id": 33992, "name": "COSMOS 2251 DEB", "group": "cosmos-2251-debris", "lat": -46.35805854260677, "lon": 161.31837483016682, "alt_km": 710.7299883322239, "timestamp": "2025-12-19T22:41:52.789201+00:00", "meta": {"OBJECT_NAME": "COSMOS 2251 DEB", "OBJECT_ID": "1993-036GB", "EPOCH": "2025-12-19T09:04:41.909376", "MEAN_MOTION": 14.6626337, "ECCENTRICITY": 0.0051712, "INCLINATION": 74.0238, "RA_OF_ASC_NODE": 324.9309, "ARG_OF_PERICENTER": 80.7442, "MEAN_ANOMALY": 33.4272, "EPHEMERIS_TYPE": 0, "CLASSIFICATION_TYPE": "U", "NORAD_CAT_ID": 33992, "ELEMENT_SET_NO": 999, "REV_AT_EPOCH": 89222, "BSTAR": 0.00053797, "MEAN_MOTION_DOT": 2.994e-05, "MEAN_MOTION_DDOT": 0}, "tle": {"line1": "1 33992U 93036GB  25353.37826284  .00002994  00000+0  53797-3 0  9992", "line2": "2 33992  74.0238 324.9309 0051712  80.7442  33.4272 14.66263370892225"}}, "geometry": {"type": "Point", "coordinates": [161.31837483016682, -46.35805854260677]}}, {"type": "Feature", "properties": {"norad_id": 33994, "name": "COSMOS 2251 DEB", "group": "cosmos-2251-debris", "lat": -30.88624550360983, "lon": 6.9300744853334395, "alt_km": 762.4428934428706, "timestamp": "2025-12-19T22:41:52.789211+00:00", "meta": {"OBJECT_NAME": "COSMOS 2251 DEB", "OBJECT_ID": "1993-036GD", "EPOCH": "2025-12-19T18:27:13.118976", "MEAN_MOTION": 14.41218654, "ECCENTRICITY": 0.0023839, "INCLINATION": 74.0416, "RA_OF_ASC_NODE": 177.4019, "ARG_OF_PERICENTER": 310.5211, "MEAN_ANOMALY": 64.7333, "EPHEMERIS_TYPE": 0, "CLASSIFICATION_TYPE": "U", "NORAD_CAT_ID": 33994, "ELEMENT_SET_NO": 999, "REV_AT_EPOCH": 88521, "BSTAR": 6.6356e-05, "MEAN_MOTION_DOT": 1.88e-06, "MEAN_MOTION_DDOT": 0}, "tle": {"line1": "1 33994U 93036GD  25353.76890184  .00000188  00000+0  66356-4 0  9996", "line2": "2 33994  74.0416 177.4019 0023839 310.5211  64.7333 14.41218654885215"}}, "geometry": {"type": "Point", "coordinates": [6.9300744853334395, -30.88624550360983]}}, {"type": "Feature", "properties": {"norad_id": 33995, "name": "COSMOS 2251 DEB", "group": "cosmos-2251-debris", "lat": 54.6197305998453, "lon": -97.55958128308238, "alt_km": 727.5788884306758, "timestamp": "2025-12-19T22:41:52.789221+00:00", "meta": {"OBJECT_NAME": "COSMOS 2251 DEB", "OBJECT_ID": "1993-036GE", "EPOCH": "2025-12-19T13:46:03.913824", "MEAN_MOTION": 14.3480458, "ECCENTRICITY": 0.0059643, "INCLINATION": 74.0617, "RA_OF_ASC_NODE": 106.8494, "ARG_OF_PERICENTER": 119.3604, "MEAN_ANOMALY": 241.3523, "EPHEMERIS_TYPE": 0, "CLASSIFICATION_TYPE": "U", "NORAD_CAT_ID": 33995, "ELEMENT_SET_NO": 999, "REV_AT_EPOCH": 87617, "BSTAR": 0.00059432, "MEAN_MOTION_DOT": 1.695e-05, "MEAN_MOTION_DDOT": 0}, "tle": {"line1": "1 33995U 93036GE  25353.57365641  .00001695  00000+0  59432-3 0  9991", "line2": "2 33995  74.0617 106.8494 0059643 119.3604 241.3523 14.34804580876175"}}, "geometry": {"type": "Point", "coordinates": [-97.55958128308238, 54.6197305998453]}}, {"type": "Feature", "properties": {"norad_id": 33999, "name": "COSMOS 2251 DEB", "group": "cosmos-2251-debris", "lat": 70.76987890182043, "lon": -19.38938258988868, "alt_km": 580.4195639085929, "timestamp": "2025-12-19T22:41:52.789231+00:00", "meta": {"OBJECT_NAME": "COSMOS 2251 DEB", "OBJECT_ID": "1993-036GJ", "EPOCH": "2025-12-19T01:12:27.249696", "MEAN_MOTION": 14.83485098, "ECCENTRICITY": 0.00444173, "INCLINATION": 73.9181, "RA_OF_ASC_NODE": 218.1903, "ARG_OF_PERICENTER": 111.8803, "MEAN_ANOMALY": 248.7107, "EPHEMERIS_TYPE": 0, "CLASSIFICATION_TYPE": "U", "NORAD_CAT_ID": 33999, "ELEMENT_SET_NO": 999, "REV_AT_EPOCH": 89344, "BSTAR": 0.00093991228, "MEAN_MOTION_DOT": 7.837e-05, "MEAN_MOTION_DDOT": 0}, "tle": {"line1": "1 33999U 93036GJ  25353.05031539  .00007837  00000+0  93991-3 0  9996", "line2": "2 33999  73.9181 218.1903 0044417 111.8803 248.7107 14.83485098893447"}}, "geometry": {"type": "Point", "coordinates": [-19.38938258988868, 70.76987890182043]}}]}